[{"OBJECT_NAME":"SVYATOBOR 1 (RS60S)","OBJECT_ID":"2023-091X","EPOCH":"2026-03-09T23:06:11.081664","MEAN_MOTION":15.2482043,"ECCENTRICITY":0.00111996,"INCLINATION":97.5206,"RA_OF_ASC_NODE":132.3062,"ARG_OF_PERICENTER":84.4206,"MEAN_ANOMALY":275.8308,"EPHEMERIS_TYPE":0,"CLASSIFICATION_TYPE":"U","NORAD_CAT_ID":57187,"ELEMENT_SET_NO":999,"REV_AT_EPOCH":14918,"BSTAR":0.00046454276,"MEAN_MOTION_DOT":0.00011484,"MEAN_MOTION_DDOT":0},{"OBJECT_NAME":"STARLINK-30823","OBJECT_ID":"2023-171U","EPOCH":"2026-03-09T22:00:01.999584","MEAN_MOTION":15.25805743,"ECCENTRICITY":0.00012523,"INCLINATION":42.9988,"RA_OF_ASC_NODE":283.5897,"ARG_OF_PERICENTER":295.4431,"MEAN_ANOMALY":54.389,"EPHEMERIS_TYPE":0,"CLASSIFICATION_TYPE":"U","NORAD_CAT_ID":58248,"ELEMENT_SET_NO":999,"REV_AT_EPOCH":577,"BSTAR":0.0024404241,"MEAN_MOTION_DOT":0.00063934,"MEAN_MOTION_DDOT":0}]
